{"type": "FeatureCollection", "features": [ {"type": "Feature", "properties": {"norad_id": 43683, "name": "BEIDOU-3 G1 (C59)", "group": "gnss", "lat": -2.561384166240991, "lon": 20.538050139290377, "alt_km": 35792.701554618165, "timestamp": "2025-12-08T10:52:03.190187+00:00", "meta": {"OBJECT_NAME": "BEIDOU-3 G1 (C59)", "OBJECT_ID": "2018-085A", "EPOCH": "2025-12-07T22:51:34.164864", "MEAN_MOTION": 1.00272268, "ECCENTRICITY": 0.00018224, "INCLINATION": 2.5954, "RA_OF_ASC_NODE": 103.0854, "ARG_OF_PERICENTER": 63.7825, "MEAN_ANOMALY": 33.0599, "EPHEMERIS_TYPE": 0, "CLASSIFICATION_TYPE": "U", "NORAD_CAT_ID": 43683, "ELEMENT_SET_NO": 999, "REV_AT_EPOCH": 2614, "BSTAR": 0, "MEAN_MOTION_DOT": -2.75e-06, "MEAN_MOTION_DDOT": 0}, "tle": {"line1": "1 43683U 18085A   25341.95247876 -.00000275  00000+0  00000+0 0  9992", "line2": "2 43683   2.5954 103.0854 0001822  63.7825  33.0599  1.00272268 26146"}}, "geometry": {"type": "Point", "coordinates": [20.538050139290377, -2.561384166240991]}}, {"type": "Feature", "properties": {"norad_id": 43687, "name": "COSMOS 2529 (757)", "group": "gnss", "lat": -17.395166965292187, "lon": 27.718710899104355, "alt_km": 19121.92144777949, "timestamp": "2025-12-08T10:52:03.190227+00:00", "meta": {"OBJECT_NAME": "COSMOS 2529 (757)", "OBJECT_ID": "2018-086A", "EPOCH": "2025-12-03T00:44:36.468960", "MEAN_MOTION": 2.13101888, "ECCENTRICITY": 0.00072932, "INCLINATION": 64.2917, "RA_OF_ASC_NODE": 199.2166, "ARG_OF_PERICENTER": 254.4618, "MEAN_ANOMALY": 105.5545, "EPHEMERIS_TYPE": 0, "CLASSIFICATION_TYPE": "U", "NORAD_CAT_ID": 43687, "ELEMENT_SET_NO": 999, "REV_AT_EPOCH": 5510, "BSTAR": 0, "MEAN_MOTION_DOT": 1.06e-06, "MEAN_MOTION_DDOT": 0}, "tle": {"line1": "1 43687U 18086A   25337.03097765  .00000106  00000+0  00000+0 0  9993", "line2": "2 43687  64.2917 199.2166 0007293 254.4618 105.5545  2.13101888 55102"}}, "geometry": {"type": "Point", "coordinates": [27.718710899104355, -17.395166965292187]}}, {"type": "Feature", "properties": {"norad_id": 43706, "name": "BEIDOU-3 M17 (C36)", "group": "gnss", "lat": -16.36870457313823, "lon": 21.02932930392666, "alt_km": 21535.527468162894, "timestamp": "2025-12-08T10:52:03.190247+00:00", "meta": {"OBJECT_NAME": "BEIDOU-3 M17 (C36)", "OBJECT_ID": "2018-093A", "EPOCH": "2025-12-03T14:10:37.280064", "MEAN_MOTION": 1.86228161, "ECCENTRICITY": 0.00063465, "INCLINATION": 54.1727, "RA_OF_ASC_NODE": 188.9327, "ARG_OF_PERICENTER": 306.3477, "MEAN_ANOMALY": 234.3147, "EPHEMERIS_TYPE": 0, "CLASSIFICATION_TYPE": "U", "NORAD_CAT_ID": 43706, "ELEMENT_SET_NO": 999, "REV_AT_EPOCH": 4789, "BSTAR": 0, "MEAN_MOTION_DOT": 1.14e-06, "MEAN_MOTION_DDOT": 0}, "tle": {"line1": "1 43706U 18093A   25337.59070926  .00000114  00000+0  00000+0 0  9993", "line2": "2 43706  54.1727 188.9327 0006346 306.3477 234.3147  1.86228161 47892"}}, "geometry": {"type": "Point", "coordinates": [21.02932930392666, -16.36870457313823]}}, {"type": "Feature", "properties": {"norad_id": 43707, "name": "BEIDOU-3 M18 (C37)", "group": "gnss", "lat": -48.13927433411999, "lon": 135.01367345373157, "alt_km": 21524.664093614134, "timestamp": "2025-12-08T10:52:03.190265+00:00", "meta": {"OBJECT_NAME": "BEIDOU-3 M18 (C37)", "OBJECT_ID": "2018-093B", "EPOCH": "2025-12-06T22:35:39.985728", "MEAN_MOTION": 1.86226513, "ECCENTRICITY": 0.00063709, "INCLINATION": 54.1733, "RA_OF_ASC_NODE": 188.8105, "ARG_OF_PERICENTER": 351.8977, "MEAN_ANOMALY": 8.1663, "EPHEMERIS_TYPE": 0, "CLASSIFICATION_TYPE": "U", "NORAD_CAT_ID": 43707, "ELEMENT_SET_NO": 999, "REV_AT_EPOCH": 4795, "BSTAR": 0, "MEAN_MOTION_DOT": 6.5e-07, "MEAN_MOTION_DDOT": 0}, "tle": {"line1": "1 43707U 18093B   25340.94143502  .00000065  00000+0  00000+0 0  9993", "line2": "2 43707  54.1733 188.8105 0006370 351.8977   8.1663  1.86226513 47956"}}, "geometry": {"type": "Point", "coordinates": [135.01367345373157, -48.13927433411999]}}, {"type": "Feature", "properties": {"norad_id": 43873, "name": "GPS BIII-1  (PRN 04)", "group": "gnss", "lat": -51.40162677738189, "lon": 40.56026984681544, "alt_km": 20195.22462071005, "timestamp": "2025-12-08T10:52:03.190284+00:00", "meta": {"OBJECT_NAME": "GPS BIII-1  (PRN 04)", "OBJECT_ID": "2018-109A", "EPOCH": "2025-12-07T19:01:44.970240", "MEAN_MOTION": 2.00553303, "ECCENTRICITY": 0.00371945, "INCLINATION": 55.5649, "RA_OF_ASC_NODE": 99.742, "ARG_OF_PERICENTER": 194.7873, "MEAN_ANOMALY": 336.926, "EPHEMERIS_TYPE": 0, "CLASSIFICATION_TYPE": "U", "NORAD_CAT_ID": 43873, "ELEMENT_SET_NO": 999, "REV_AT_EPOCH": 5123, "BSTAR": 0, "MEAN_MOTION_DOT": 3e-08, "MEAN_MOTION_DDOT": 0}, "tle": {"line1": "1 43873U 18109A   25341.79288160  .00000003  00000+0  00000+0 0  9991", "line2": "2 43873  55.5649  99.7420 0037194 194.7873 336.9260  2.00553303 51236"}}, "geometry": {"type": "Point", "coordinates": [40.56026984681544, -51.40162677738189]}}, {"type": "Feature", "properties": {"norad_id": 44204, "name": "BEIDOU-3 IGSO-1 (C38)", "group": "gnss", "lat": -37.31986949387171, "lon": 11.740450298096118, "alt_km": 35804.14200382968, "timestamp": "2025-12-08T10:52:03.190305+00:00", "meta": {"OBJECT_NAME": "BEIDOU-3 IGSO-1 (C38)", "OBJECT_ID": "2019-023A", "EPOCH": "2025-11-19T14:15:02.708640", "MEAN_MOTION": 1.00252177, "ECCENTRICITY": 0.0026966, "INCLINATION": 58.4003, "RA_OF_ASC_NODE": 39.8168, "ARG_OF_PERICENTER": 221.2202, "MEAN_ANOMALY": 126.9723, "EPHEMERIS_TYPE": 0, "CLASSIFICATION_TYPE": "U", "NORAD_CAT_ID": 44204, "ELEMENT_SET_NO": 999, "REV_AT_EPOCH": 510, "BSTAR": 0, "MEAN_MOTION_DOT": -2.26e-06, "MEAN_MOTION_DDOT": 0}, "tle": {"line1": "1 44204U 19023A   25323.59378135 -.00000226  00000+0  00000+0 0  9994", "line2": "2 44204  58.4003  39.8168 0026966 221.2202 126.9723  1.00252177  5102"}}, "geometry": {"type": "Point", "coordinates": [11.740450298096118, -37.31986949387171]}}, {"type": "Feature", "properties": {"norad_id": 44231, "name": "BEIDOU-2 G8 (C01)", "group": "gnss", "lat": -1.2426980547917588, "lon": 25.105510840182582, "alt_km": 35766.42378205578, "timestamp": "2025-12-08T10:52:03.190329+00:00", "meta": {"OBJECT_NAME": "BEIDOU-2 G8 (C01)", "OBJECT_ID": "2019-027A", "EPOCH": "2025-12-07T22:52:56.534304", "MEAN_MOTION": 1.00269075, "ECCENTRICITY": 0.00085913, "INCLINATION": 1.6496, "RA_OF_ASC_NODE": 74.7187, "ARG_OF_PERICENTER": 255.3493, "MEAN_ANOMALY": 234.6834, "EPHEMERIS_TYPE": 0, "CLASSIFICATION_TYPE": "U", "NORAD_CAT_ID": 44231, "ELEMENT_SET_NO": 999, "REV_AT_EPOCH": 2416, "BSTAR": 0, "MEAN_MOTION_DOT": -2.45e-06, "MEAN_MOTION_DDOT": 0}, "tle": {"line1": "1 44231U 19027A   25341.95343211 -.00000245  00000+0  00000+0 0  9996", "line2": "2 44231   1.6496  74.7187 0008591 255.3493 234.6834  1.00269075 24163"}}, "geometry": {"type": "Point", "coordinates": [25.105510840182582, -1.2426980547917588]}}, {"type": "Feature", "properties": {"norad_id": 44299, "name": "COSMOS 2534 (758)", "group": "gnss", "lat": -23.373884037034223, "lon": -172.93697302031492, "alt_km": 19118.64681139144, "timestamp": "2025-12-08T10:52:03.190350+00:00", "meta": {"OBJECT_NAME": "COSMOS 2534 (758)", "OBJECT_ID": "2019-030A", "EPOCH": "2025-12-07T18:53:39.162912", "MEAN_MOTION": 2.1310206, "ECCENTRICITY": 0.00089584, "INCLINATION": 64.3654, "RA_OF_ASC_NODE": 199.0599, "ARG_OF_PERICENTER": 283.6827, "MEAN_ANOMALY": 259.6101, "EPHEMERIS_TYPE": 0, "CLASSIFICATION_TYPE": "U", "NORAD_CAT_ID": 44299, "ELEMENT_SET_NO": 999, "REV_AT_EPOCH": 5084, "BSTAR": 0, "MEAN_MOTION_DOT": 5.4e-07, "MEAN_MOTION_DDOT": 0}, "tle": {"line1": "1 44299U 19030A   25341.78725883  .00000054  00000+0  00000+0 0  9991", "line2": "2 44299  64.3654 199.0599 0008958 283.6827 259.6101  2.13102060 50842"}}, "geometry": {"type": "Point", "coordinates": [-172.93697302031492, -23.373884037034223]}}, {"type": "Feature", "properties": {"norad_id": 44337, "name": "BEIDOU-3 IGSO-2 (C39)", "group": "gnss", "lat": -15.896663488046675, "lon": -8.042597452521319, "alt_km": 35630.94081003156, "timestamp": "2025-12-08T10:52:03.190371+00:00", "meta": {"OBJECT_NAME": "BEIDOU-3 IGSO-2 (C39)", "OBJECT_ID": "2019-035A", "EPOCH": "2025-12-07T16:50:33.150912", "MEAN_MOTION": 1.002726, "ECCENTRICITY": 0.00374891, "INCLINATION": 55.2245, "RA_OF_ASC_NODE": 160.5453, "ARG_OF_PERICENTER": 202.4176, "MEAN_ANOMALY": 85.9349, "EPHEMERIS_TYPE": 0, "CLASSIFICATION_TYPE": "U", "NORAD_CAT_ID": 44337, "ELEMENT_SET_NO": 999, "REV_AT_EPOCH": 2374, "BSTAR": 0, "MEAN_MOTION_DOT": -7.8e-07, "MEAN_MOTION_DDOT": 0}, "tle": {"line1": "1 44337U 19035A   25341.70177258 -.00000078  00000+0  00000+0 0  9995", "line2": "2 44337  55.2245 160.5453 0037489 202.4176  85.9349  1.00272600 23745"}}, "geometry": {"type": "Point", "coordinates": [-8.042597452521319, -15.896663488046675]}}, {"type": "Feature", "properties": {"norad_id": 44506, "name": "GPS BIII-2  (PRN 18)", "group": "gnss", "lat": -4.020445588449389, "lon": 161.46319981710172, "alt_km": 20033.994594945965, "timestamp": "2025-12-08T10:52:03.190392+00:00", "meta": {"OBJECT_NAME": "GPS BIII-2  (PRN 18)", "OBJECT_ID": "2019-056A", "EPOCH": "2025-12-07T10:30:03.799008", "MEAN_MOTION": 2.00565766, "ECCENTRICITY": 0.00577762, "INCLINATION": 55.723, "RA_OF_ASC_NODE": 338.7627, "ARG_OF_PERICENTER": 198.4737, "MEAN_ANOMALY": 333.4267, "EPHEMERIS_TYPE": 0, "CLASSIFICATION_TYPE": "U", "NORAD_CAT_ID": 44506, "ELEMENT_SET_NO": 999, "REV_AT_EPOCH": 4622, "BSTAR": 0, "MEAN_MOTION_DOT": -8.3e-07, "MEAN_MOTION_DDOT": 0}, "tle": {"line1": "1 44506U 19056A   25341.43754397 -.00000083  00000+0  00000+0 0  9997", "line2": "2 44506  55.7230 338.7627 0057776 198.4737 333.4267  2.00565766 46229"}}, "geometry": {"type": "Point", "coordinates": [161.46319981710172, -4.020445588449389]}}]}